IRIDIUM 64 [+]          
1 25287U 98021C   08167.47795540  .00000002  00000-0 -64122-5 0   957
2 25287  86.3969 158.4335 0002551  83.0021 277.1470 14.34217348533627
IRIDIUM 65 [+]          
1 25288U 98021D   08167.48430034 -.00000005  00000-0 -88439-5 0  1438
2 25288  86.3965 158.3885 0002548  83.1230 277.0254 14.34217183533640
IRIDIUM 66 [+]          
1 25289U 98021E   08167.49064162 -.00000033  00000-0 -18866-4 0  1038
2 25289  86.3968 158.3177 0002539  79.9106 280.2381 14.34217163533648
IRIDIUM 67 [+]          
1 25290U 98021F   08167.49698419 -.00000063  00000-0 -29741-4 0  9224
2 25290  86.3967 158.4001 0002555  81.8546 278.2950 14.34217010533655
IRIDIUM 68 [+]          
1 25291U 98021G   08167.50332904 -.00000022  00000-0 -14822-4 0  1402
2 25291  86.3971 158.4566 0002529  81.5546 278.5946 14.34217020533621
IRIDIUM 69 [-]          
1 25319U 98026A   08167.41456991  .00000067  00000-0  16045-4 0  9551
2 25319  86.4000 187.0095 0000539  74.8197 285.3065 14.37036471530501
IRIDIUM 71 [-]          
1 25320U 98026B   08167.60734366  .00000096  00000-0  25199-4 0  8280
2 25320  86.3987 184.5563 0003228  34.7348 325.4063 14.37632412530791
IRIDIUM 70 [+]          
1 25342U 98032A   08167.45892730 -.00000020  00000-0 -14337-4 0  1604
2 25342  86.3973 158.5660 0002581  81.3313 278.8185 14.34217328527727
IRIDIUM 72 [+]          
1 25343U 98032B   08167.51600952 -.00000030  00000-0 -17878-4 0  1463
2 25343  86.3968 158.3669 0002507  81.9894 278.1595 14.34217282527735
IRIDIUM 73 [-]          
1 25344U 98032C   08167.42268861  .00000103  00000-0  22572-4 0  9906
2 25344  86.4430 150.1215 0001812  85.9452 274.1963 14.47071495531682
IRIDIUM 74 [S]          
1 25345U 98032D   08167.51393983 -.00000064  00000-0 -25257-4 0  1566
2 25345  86.4480 158.4849 0002621  83.6302 276.5195 14.42947945528518
IRIDIUM 75 [+]          
1 25346U 98032E   08167.52235515 -.00000010  00000-0 -10494-4 0  1731
2 25346  86.3973 158.4984 0002534  82.0352 278.1143 14.34217145528307
IRIDIUM 3 [+]           
1 25431U 98048A   08167.50670421 -.00000011  00000-0 -10890-4 0  1023
2 25431  86.3973 190.0473 0002114  73.9120 286.2325 14.34217880514249
IRIDIUM 76 [+]          
1 25432U 98048B   08167.52574034  .00000010  00000-0 -34460-5 0   330
2 25432  86.3970 189.8996 0002914  72.0513 288.1012 14.34218388514234
IRIDIUM 82 [+]          
1 25467U 98051A   08167.49514467  .00000042  00000-0  78565-5 0  2725
2 25467  86.3949 316.3506 0001672 103.1532 256.9856 14.34212797515248
IRIDIUM 81 [+]          
1 25468U 98051B   08167.48879154  .00000087  00000-0  24070-4 0   977
2 25468  86.3935 316.2380 0002464  87.8400 272.3096 14.34212529511466
IRIDIUM 80 [+]          
1 25469U 98051C   08167.46976659  .00000054  00000-0  12098-4 0   931
2 25469  86.3943 316.3474 0002393  85.8619 274.2856 14.34213187511468
IRIDIUM 77 [+]          
1 25471U 98051E   08167.47611287  .00000049  00000-0  10274-4 0  2679
2 25471  86.3933 316.2539 0002035  57.3973 302.7430 14.34212879516660
IRIDIUM 2 [-]           
1 25527U 98066A   08167.43887613  .00000014  00000-0 -16044-5 0  4476
2 25527  85.5618 129.3231 0012934  63.3769 296.8784 14.97772506523338
IRIDIUM 86 [+]          
1 25528U 98066B   08167.43459882  .00000100  00000-0  28775-4 0  3152
2 25528  86.3940 284.5212 0001691  75.5245 284.6146 14.34215519507988
IRIDIUM 84 [+]          
1 25530U 98066D   08167.46631047  .00000143  00000-0  44071-4 0  9827
2 25530  86.3924 284.6075 0002425  88.7162 271.4321 14.34215929505624
IRIDIUM 83 [+]          
1 25531U 98066E   08167.42826001  .00000105  00000-0  30533-4 0   850
2 25531  86.3936 284.6245 0002457  88.3450 271.8037 14.34215498502972
IRIDIUM 20 [+]          
1 25577U 98074A   08167.48768590  .00000005  00000-0 -51288-5 0   214
2 25577  86.3969 189.8850 0002538  85.3887 274.7608 14.34218109497068
IRIDIUM 11 [S]          
1 25578U 98074B   08167.52828497 -.00000048  00000-0 -16275-4 0  1915
2 25578  86.5163 190.0359 0002571  84.4117 275.7390 14.54938443504237
IRIDIUM 14 [S]          
1 25777U 99032A   08167.52453865 -.00000022  00000-0 -10042-4 0  1642
2 25777  86.5151 158.4240 0003388  88.8036 271.3564 14.54936186478616
IRIDIUM 21 [+]          
1 25778U 99032B   08167.50967287 -.00000012  00000-0 -11247-4 0   870
2 25778  86.3968 158.4418 0004376  61.9444 298.2193 14.34217103476748
IRIDIUM 91 [S]          
1 27372U 02005A   08167.48436717  .00000129  00000-0  19002-4 0  6580
2 27372  86.5791 221.7354 0004100 165.0234 195.1096 14.66605280339418
IRIDIUM 90 [S]          
1 27373U 02005B   08167.36055761  .00000098  00000-0  23271-4 0  6414
2 27373  86.4440 284.4533 0007106 111.9415 248.2546 14.42950380337094
IRIDIUM 94 [S]          
1 27374U 02005C   08167.49092449  .00000075  00000-0  92391-5 0  6801
2 27374  86.5783 221.3767 0002581  85.8530 274.2959 14.66605962339418
IRIDIUM 95 [S]          
1 27375U 02005D   08167.49701505  .00000115  00000-0  16485-4 0  6592
2 27375  86.5779 221.5141 0002538  85.1512 274.9989 14.66605491339414
IRIDIUM 96 [S]          
1 27376U 02005E   08167.23025157  .00000080  00000-0  10215-4 0  6751
2 27376  86.5776 221.4479 0002582  85.2906 274.8587 14.66605756339374
IRIDIUM 97 [+]          
1 27450U 02031A   08167.32331501 -.00000491  00000-0 -18229-3 0  5935
2 27450  86.3944 253.4244 0004252 135.3764 224.7704 14.34216282318832
IRIDIUM 98 [S]          
1 27451U 02031B   08167.45513021  .00000055  00000-0  10449-4 0  5929
2 27451  86.4479 316.3737 0002081 198.0822 162.0309 14.42948154317969
